ICEYE-X48               
1 63253U 25052AV  26068.70765702  .00004541  00000+0  39589-3 0  9999
2 63253  97.6979 322.3976 0002688 141.7433 218.3980 14.97356709 53782
STARLINK-36263          
1 67202U 25304L   26068.29534749  .00022821  00000+0  19147-2 0  9994
2 67202  70.0012 175.5312 0003541 267.9987  92.0766 14.98319080 13821
